ONEWEB-0340             
1 49206U 21083W   25253.37745004  .00000056  00000+0  10941-3 0  9990
2 49206  87.9182  31.0127 0001807  96.1300 264.0038 13.18688706193090
ONEWEB-0341             
1 49207U 21083X   25253.38405808  .00000053  00000+0  10252-3 0  9999
2 49207  87.9186  31.0237 0001874 113.9830 246.1499 13.18687555193113
ONEWEB-0342             
1 49208U 21083Y   25252.74771169 -.00000043  00000+0 -13844-3 0  9996
2 49208  87.9277 330.3408 0001759  97.9773 262.1560 13.20770605199765
ONEWEB-0343             
1 49209U 21083Z   25253.37994350  .00000069  00000+0  14211-3 0  9991
2 49209  87.9185  31.0104 0001514 115.9839 244.1449 13.18686862193167
ONEWEB-0344             
1 49210U 21083AA  25253.31954558  .00000253  00000+0  65748-3 0  9999
2 49210  87.9018  15.8724 0001935 111.2925 248.8411 13.13471384194150
ONEWEB-0345             
1 49211U 21083AB  25252.85401969 -.00000046  00000+0 -16036-3 0  9999
2 49211  87.9025  15.9180 0001851 112.1704 247.9621 13.13469797194101
ONEWEB-0346             
1 49212U 21083AC  25253.31314326  .00000130  00000+0  29577-3 0  9998
2 49212  87.9186  31.0461 0002305  89.7543 270.3853 13.18687037193094
ONEWEB-0348             
1 49213U 21083AD  25253.19278854  .00000006  00000+0 -16284-4 0  9995
2 49213  87.9276 330.2644 0002471 105.2848 254.8558 13.20771973199853
